start=new Date('2022-11-05T00:00:00.000Z').valueOf();
sats=[{"CENTER_NAME":"EARTH","RA_OF_ASC_NODE":"50.4191","COUNTRY_CODE":"US","MEAN_ELEMENT_THEORY":"SGP4","EPOCH":"2022-11-04T16:31:19.552800","SEMIMAJOR_AXIS":"6917.883","MEAN_MOTION_DDOT":"0.0000000000000","REV_AT_EPOCH":"3980","TLE_LINE1":"1 51816U 22017BA  22308.68842075  .00000415  00000-0  44193-4 0  9993","OBJECT_ID":"2022-017BA","FILE":"3645105","RCS_SIZE":"LARGE","INCLINATION":"53.2192","GP_ID":"216936646","ECCENTRICITY":"0.00016540","REF_FRAME":"TEME","PERIOD":"95.438","SITE":"AFWTR","APOAPSIS":"540.892","BSTAR":"0.00004419300000","OBJECT_NAME":"STARLINK-3603","LAUNCH_DATE":"2022-02-25","PERIAPSIS":"538.603","EPHEMERIS_TYPE":"0","MEAN_MOTION":"15.08839295","NORAD_CAT_ID":"51816","ARG_OF_PERICENTER":"59.1623","MEAN_ANOMALY":"300.9531","DECAY_DATE":null,"OBJECT_TYPE":"PAYLOAD","MEAN_MOTION_DOT":"0.00000415","ELEMENT_SET_NO":"999","TLE_LINE2":"2 51816  53.2192  50.4191 0001654  59.1623 300.9531 15.08839295 39808","CLASSIFICATION_TYPE":"U","TIME_SYSTEM":"UTC"},{"OBJECT_NAME":"STARLINK-3596","LAUNCH_DATE":"2022-02-25","PERIOD":"91.328","ECCENTRICITY":"0.00040670","REF_FRAME":"TEME","BSTAR":"0.00003764500000","SITE":"AFWTR","APOAPSIS":"342.424","EPHEMERIS_TYPE":"0","PERIAPSIS":"336.960","MEAN_ANOMALY":"358.5512","DECAY_DATE":null,"MEAN_MOTION":"15.76738091","NORAD_CAT_ID":"51817","ARG_OF_PERICENTER":"1.5522","MEAN_MOTION_DOT":"0.00005510","TIME_SYSTEM":"UTC","CLASSIFICATION_TYPE":"U","ELEMENT_SET_NO":"999","TLE_LINE2":"2 51817  53.2031 326.6803 0004067   1.5522 358.5512 15.76738091 41032","OBJECT_TYPE":"PAYLOAD","CENTER_NAME":"EARTH","RA_OF_ASC_NODE":"326.6803","EPOCH":"2022-11-04T18:16:04.389024","COUNTRY_CODE":"US","MEAN_ELEMENT_THEORY":"SGP4","REV_AT_EPOCH":"4103","MEAN_MOTION_DDOT":"0.0000000000000","SEMIMAJOR_AXIS":"6717.827","OBJECT_ID":"2022-017BB","TLE_LINE1":"1 51817U 22017BB  22308.76116191  .00005510  00000-0  37645-4 0  9991","GP_ID":"216937397","FILE":"3645105","RCS_SIZE":"LARGE","INCLINATION":"53.2031"},{"MEAN_MOTION_DOT":"0.00000901","TIME_SYSTEM":"UTC","CLASSIFICATION_TYPE":"U","ELEMENT_SET_NO":"999","TLE_LINE2":"2 51852  53.2166  99.6814 0001599  57.5322 302.5824 15.08835944 37451","OBJECT_TYPE":"PAYLOAD","MEAN_ANOMALY":"302.5824","DECAY_DATE":null,"MEAN_MOTION":"15.08835944","NORAD_CAT_ID":"51852","ARG_OF_PERICENTER":"57.5322","EPHEMERIS_TYPE":"0","PERIAPSIS":"538.652","OBJECT_NAME":"STARLINK-3542","LAUNCH_DATE":"2022-03-03","PERIOD":"95.438","ECCENTRICITY":"0.00015990","REF_FRAME":"TEME","SITE":"AFETR","BSTAR":"0.00007473300000","APOAPSIS":"540.864","GP_ID":"216937891","RCS_SIZE":"LARGE","FILE":"3645105","INCLINATION":"53.2166","OBJECT_ID":"2022-022A","TLE_LINE1":"1 51852U 22022A   22308.84942921  .00000901  00000-0  74733-4 0  9991","REV_AT_EPOCH":"3745","MEAN_MOTION_DDOT":"0.0000000000000","SEMIMAJOR_AXIS":"6917.893","RA_OF_ASC_NODE":"99.6814","CENTER_NAME":"EARTH","EPOCH":"2022-11-04T20:23:10.683744","MEAN_ELEMENT_THEORY":"SGP4","COUNTRY_CODE":"US"},{"SEMIMAJOR_AXIS":"6917.886","REV_AT_EPOCH":"3864","MEAN_MOTION_DDOT":"0.0000000000000","CENTER_NAME":"EARTH","RA_OF_ASC_NODE":"99.9665","EPOCH":"2022-11-04T18:53:04.987392","COUNTRY_CODE":"US","MEAN_ELEMENT_THEORY":"SGP4","FILE":"3645105","RCS_SIZE":"MEDIUM","INCLINATION":"53.2167","GP_ID":"216936650","TLE_LINE1":"1 51853U 22022B   22308.78686328  .00002228  00000-0  15803-3 0  9997","OBJECT_ID":"2022-022B","PERIAPSIS":"538.957","EPHEMERIS_TYPE":"0","PERIOD":"95.438","ECCENTRICITY":"0.00011470","REF_FRAME":"TEME","SITE":"AFETR","APOAPSIS":"540.544","BSTAR":"0.00015803000000","OBJECT_NAME":"STARLINK-3539","LAUNCH_DATE":"2022-03-03","OBJECT_TYPE":"PAYLOAD","MEAN_MOTION_DOT":"0.00002228","TIME_SYSTEM":"UTC","CLASSIFICATION_TYPE":"U","TLE_LINE2":"2 51853  53.2167  99.9665 0001147  56.2931 303.8171 15.08838178 38644","ELEMENT_SET_NO":"999","MEAN_MOTION":"15.08838178","NORAD_CAT_ID":"51853","ARG_OF_PERICENTER":"56.2931","MEAN_ANOMALY":"303.8171","DECAY_DATE":null},{"OBJECT_NAME":"STARLINK-3541","LAUNCH_DATE":"2022-03-03","PERIOD":"95.437","ECCENTRICITY":"0.00019330","REF_FRAME":"TEME","BSTAR":"0.00008529400000","SITE":"AFETR","APOAPSIS":"541.072","EPHEMERIS_TYPE":"0","PERIAPSIS":"538.397","MEAN_ANOMALY":"304.2173","DECAY_DATE":null,"MEAN_MOTION":"15.08843561","NORAD_CAT_ID":"51854","ARG_OF_PERICENTER":"55.9002","MEAN_MOTION_DOT":"0.00001070","CLASSIFICATION_TYPE":"U","TIME_SYSTEM":"UTC","TLE_LINE2":"2 51854  53.2156  99.6958 0001933  55.9002 304.2173 15.08843561 38710","ELEMENT_SET_NO":"999","OBJECT_TYPE":"PAYLOAD","CENTER_NAME":"EARTH","RA_OF_ASC_NODE":"99.6958","EPOCH":"2022-11-04T20:17:52.788768","MEAN_ELEMENT_THEORY":"SGP4","COUNTRY_CODE":"US","REV_AT_EPOCH":"3871","MEAN_MOTION_DDOT":"0.0000000000000","SEMIMAJOR_AXIS":"6917.870","OBJECT_ID":"2022-022C","TLE_LINE1":"1 51854U 22022C   22308.84574987  .00001070  00000-0  85294-4 0  9998","GP_ID":"216937401","RCS_SIZE":"LARGE","FILE":"3645105","INCLINATION":"53.2156"},{"TLE_LINE1":"1 51855U 22022D   22308.83838645  .00001510  00000-0  11294-3 0  9999","OBJECT_ID":"2022-022D","INCLINATION":"53.2172","RCS_SIZE":"LARGE","FILE":"3645105","GP_ID":"216937652","COUNTRY_CODE":"US","MEAN_ELEMENT_THEORY":"SGP4","EPOCH":"2022-11-04T20:07:16.589280","RA_OF_ASC_NODE":"99.7365","CENTER_NAME":"EARTH","SEMIMAJOR_AXIS":"6917.877","MEAN_MOTION_DDOT":"0.0000000000000","REV_AT_EPOCH":"3866","ARG_OF_PERICENTER":"51.7885","NORAD_CAT_ID":"51855","MEAN_MOTION":"15.08841033","DECAY_DATE":null,"MEAN_ANOMALY":"308.3272","OBJECT_TYPE":"PAYLOAD","ELEMENT_SET_NO":"999","TLE_LINE2":"2 51855  53.2172  99.7365 0001838  51.7885 308.3272 15.08841033 38660","CLASSIFICATION_TYPE":"U","TIME_SYSTEM":"UTC","MEAN_MOTION_DOT":"0.00001510","SITE":"AFETR","BSTAR":"0.00011294000000","APOAPSIS":"541.014","ECCENTRICITY":"0.00018380","REF_FRAME":"TEME","PERIOD":"95.437","LAUNCH_DATE":"2022-03-03","OBJECT_NAME":"STARLINK-3545","PERIAPSIS":"538.471","EPHEMERIS_TYPE":"0"},{"GP_ID":"216938392","RCS_SIZE":"LARGE","FILE":"3645105","INCLINATION":"53.2176","OBJECT_ID":"2022-022E","TLE_LINE1":"1 51856U 22022E   22308.84207010  .00001046  00000-0  83832-4 0  9999","REV_AT_EPOCH":"3874","MEAN_MOTION_DDOT":"0.0000000000000","SEMIMAJOR_AXIS":"6917.887","RA_OF_ASC_NODE":"99.7234","CENTER_NAME":"EARTH","EPOCH":"2022-11-04T20:12:34.856640","COUNTRY_CODE":"US","MEAN_ELEMENT_THEORY":"SGP4","MEAN_MOTION_DOT":"0.00001046","CLASSIFICATION_TYPE":"U","TIME_SYSTEM":"UTC","ELEMENT_SET_NO":"999","TLE_LINE2":"2 51856  53.2176  99.7234 0001435  61.6457 298.4680 15.08837767 38748","OBJECT_TYPE":"PAYLOAD","MEAN_ANOMALY":"298.4680","DECAY_DATE":null,"MEAN_MOTION":"15.08837767","NORAD_CAT_ID":"51856","ARG_OF_PERICENTER":"61.6457","EPHEMERIS_TYPE":"0","PERIAPSIS":"538.759","OBJECT_NAME":"STARLINK-3568","LAUNCH_DATE":"2022-03-03","PERIOD":"95.438","ECCENTRICITY":"0.00014350","REF_FRAME":"TEME","BSTAR":"0.00008383200000","SITE":"AFETR","APOAPSIS":"540.745"},{"OBJECT_TYPE":"PAYLOAD","MEAN_MOTION_DOT":"0.00004250","ELEMENT_SET_NO":"999","TLE_LINE2":"2 51857  53.2160 100.9553 0001669  65.9640 294.1527 15.08847846 38675","TIME_SYSTEM":"UTC","CLASSIFICATION_TYPE":"U","NORAD_CAT_ID":"51857","MEAN_MOTION":"15.08847846","ARG_OF_PERICENTER":"65.9640","MEAN_ANOMALY":"294.1527","DECAY_DATE":null,"PERIAPSIS":"538.567","EPHEMERIS_TYPE":"0","REF_FRAME":"TEME","ECCENTRICITY":"0.00016690","PERIOD":"95.437","APOAPSIS":"540.876","SITE":"AFETR","BSTAR":"0.00028492000000","OBJECT_NAME":"STARLINK-3571","LAUNCH_DATE":"2022-03-03","RCS_SIZE":"LARGE","FILE":"3645105","INCLINATION":"53.2160","GP_ID":"216937151","TLE_LINE1":"1 51857U 22022F   22308.56606971  .00004250  00000-0  28492-3 0  9998","OBJECT_ID":"2022-022F","SEMIMAJOR_AXIS":"6917.856","MEAN_MOTION_DDOT":"0.0000000000000","REV_AT_EPOCH":"3867","RA_OF_ASC_NODE":"100.9553","CENTER_NAME":"EARTH","MEAN_ELEMENT_THEORY":"SGP4","COUNTRY_CODE":"US","EPOCH":"2022-11-04T13:35:08.422944"},{"COUNTRY_CODE":"US","MEAN_ELEMENT_THEORY":"SGP4","EPOCH":"2022-11-04T13:40:25.955904","CENTER_NAME":"EARTH","RA_OF_ASC_NODE":"100.9421","SEMIMAJOR_AXIS":"6917.867","MEAN_MOTION_DDOT":"0.0000000000000","REV_AT_EPOCH":"3867","TLE_LINE1":"1 51858U 22022G   22308.56974486  .00000887  00000-0  73794-4 0  9996","OBJECT_ID":"2022-022G","INCLINATION":"53.2179","RCS_SIZE":"LARGE","FILE":"3645105","GP_ID":"216936901","SITE":"AFETR","BSTAR":"0.00007379400000","APOAPSIS":"540.716","REF_FRAME":"TEME","ECCENTRICITY":"0.00014220","PERIOD":"95.437","LAUNCH_DATE":"2022-03-03","OBJECT_NAME":"STARLINK-3563","PERIAPSIS":"538.749","EPHEMERIS_TYPE":"0","ARG_OF_PERICENTER":"79.4280","MEAN_MOTION":"15.08844286","NORAD_CAT_ID":"51858","DECAY_DATE":null,"MEAN_ANOMALY":"280.6872","OBJECT_TYPE":"PAYLOAD","ELEMENT_SET_NO":"999","TLE_LINE2":"2 51858  53.2179 100.9421 0001422  79.4280 280.6872 15.08844286 38675","CLASSIFICATION_TYPE":"U","TIME_SYSTEM":"UTC","MEAN_MOTION_DOT":"0.00000887"},{"MEAN_MOTION_DDOT":"0.0000000000000","REV_AT_EPOCH":"3884","SEMIMAJOR_AXIS":"6917.869","RA_OF_ASC_NODE":"89.9651","CENTER_NAME":"EARTH","COUNTRY_CODE":"US","MEAN_ELEMENT_THEORY":"SGP4","EPOCH":"2022-11-04T18:49:06.099168","GP_ID":"216938153","RCS_SIZE":"LARGE","FILE":"3645105","INCLINATION":"53.2186","OBJECT_ID":"2022-022H","TLE_LINE1":"1 51859U 22022H   22308.78409837 -.00000044  00000-0  15356-4 0  9990","EPHEMERIS_TYPE":"0","PERIAPSIS":"538.737","OBJECT_NAME":"STARLINK-3560","LAUNCH_DATE":"2022-03-03","REF_FRAME":"TEME","ECCENTRICITY":"0.00014410","PERIOD":"95.437","SITE":"AFETR","BSTAR":"0.00001535600000","APOAPSIS":"540.731","MEAN_MOTION_DOT":"-0.00000044","ELEMENT_SET_NO":"999","TLE_LINE2":"2 51859  53.2186  89.9651 0001441  54.4006 305.7120 15.08843712 38842","CLASSIFICATION_TYPE":"U","TIME_SYSTEM":"UTC","OBJECT_TYPE":"PAYLOAD","MEAN_ANOMALY":"305.7120","DECAY_DATE":null,"NORAD_CAT_ID":"51859","MEAN_MOTION":"15.08843712","ARG_OF_PERICENTER":"54.4006"}];
